ONEWEB-0328             
1 49197U 21083M   25326.17072566  .00000440  00000+0  11693-2 0  9995
2 49197  87.9003   1.3485 0001762  92.3206 267.8125 13.13469795203721
ONEWEB-0331             
1 49198U 21083N   25326.15621678  .00000095  00000+0  20781-3 0  9993
2 49198  87.9206  16.5670 0001492 101.2075 258.9224 13.18689726202728
ONEWEB-0333             
1 49199U 21083P   25326.16564838  .00000445  00000+0  11822-2 0  9993
2 49199  87.8986   1.4059 0001887  98.9548 261.1795 13.13469964203738
ONEWEB-0334             
1 49200U 21083Q   25326.40224505 -.00001308  00000+0 -32489-2 0  9990
2 49200  87.9174 315.7018 0002946  90.3864 269.7607 13.20775735209490
ONEWEB-0335             
1 49201U 21083R   25326.16056844  .00000270  00000+0  70422-3 0  9998
2 49201  87.8986   1.3951 0001642  98.4277 261.7038 13.13470751203748
ONEWEB-0336             
1 49202U 21083S   25326.13177963 -.00000294  00000+0 -83999-3 0  9993
2 49202  87.8992   1.3965 0001407  97.5726 262.5563 13.13469968203738
ONEWEB-0337             
1 49203U 21083T   25326.14179831 -.00000137  00000+0 -41137-3 0  9995
2 49203  87.8997   1.4053 0001669  91.0083 269.1237 13.13469739203735
ONEWEB-0338             
1 49204U 21083U   25326.45276939  .00000028  00000+0  35984-4 0  9998
2 49204  87.9180 315.6942 0002156  88.8576 271.2804 13.20771726209528
ONEWEB-0339             
1 49205U 21083V   25326.15040919  .00000090  00000+0  21023-3 0  9990
2 49205  87.8994   1.3852 0001917  92.3405 267.7944 13.13469768203717
ONEWEB-0340             
1 49206U 21083W   25326.21890419  .00000015  00000+0  63196-5 0  9992
2 49206  87.9206  16.5594 0001766  99.9708 260.1623 13.18684087202692
ONEWEB-0341             
1 49207U 21083X   25326.14962392 -.00000042  00000+0 -13915-3 0  9999
2 49207  87.9205  16.5848 0001643  81.5529 278.5789 13.18684149202703
ONEWEB-0342             
1 49208U 21083Y   25326.45905883  .00000073  00000+0  14776-3 0  9994
2 49208  87.9187 315.6623 0001979  86.7086 273.4274 13.20774370209499
ONEWEB-0343             
1 49209U 21083Z   25326.15786806  .00001100  00000+0  27554-2 0  9993
2 49209  87.9204  16.5749 0002167  84.1074 276.0305 13.18697971202759
ONEWEB-0344             
1 49210U 21083AA  25326.14532627 -.00000107  00000+0 -32881-3 0  9992
2 49210  87.8983   1.4199 0001626  84.5962 275.5352 13.13469887203716
ONEWEB-0345             
1 49211U 21083AB  25326.13686653 -.00000264  00000+0 -75650-3 0  9996
2 49211  87.8996   1.3799 0001685  83.7150 276.4171 13.13470330203726
ONEWEB-0346             
1 49212U 21083AC  25326.15457722  .00000059  00000+0  11774-3 0  9999
2 49212  87.9204  16.5920 0001432 116.8785 243.2493 13.18685865202696
ONEWEB-0348             
1 49213U 21083AD  25326.44959022  .00000045  00000+0  77923-4 0  9996
2 49213  87.9176 315.6723 0001288  81.0119 279.1160 13.20774178209529
ONEWEB-0350             
1 49214U 21083AE  25326.14617146 -.00000081  00000+0 -25756-3 0  9990
2 49214  87.8997   1.3748 0001620  88.7806 271.3508 13.13469991203758
ONEWEB-0351             
1 49215U 21083AF  25326.44316549 -.00000008  00000+0 -52779-4 0  9992
2 49215  87.9185 315.6679 0002648  75.3421 284.8005 13.20772290209483
ONEWEB-0352             
1 49216U 21083AG  25326.12670941 -.00000261  00000+0 -74910-3 0  9998
2 49216  87.8988   1.4043 0002191  89.8290 270.3090 13.13469691203844
ONEWEB-0354             
1 49217U 21083AH  25326.39278519  .00000162  00000+0  36714-3 0  9991
2 49217  87.9188 315.6772 0001657  82.0296 278.1025 13.20772744209512
ONEWEB-0355             
1 49218U 21083AJ  25326.15562911  .00000207  00000+0  53318-3 0  9997
2 49218  87.8990   1.4104 0001918  90.6925 269.4424 13.13470741203723
ONEWEB-0357             
1 49219U 21083AK  25326.46539189  .00000078  00000+0  15915-3 0  9990
2 49219  87.9185 315.6592 0001941  82.7413 277.3941 13.20772988209524
ONEWEB-0332             
1 49279U 21090A   25326.40661611  .00000137  00000+0  33373-3 0  9998
2 49279  87.8977 330.9158 0002058  93.3880 266.7485 13.14501812200415
ONEWEB-0347             
1 49280U 21090B   25326.45592622  .00000067  00000+0  13207-3 0  9996
2 49280  87.9178 315.6726 0002037  96.5169 263.6196 13.20772490203758
ONEWEB-0349             
1 49281U 21090C   25326.33597705  .00000118  00000+0  25879-3 0  9996
2 49281  87.9178 315.6955 0002199  92.6373 267.5012 13.20771849202527
ONEWEB-0353             
1 49282U 21090D   25326.39868687  .00000188  00000+0  47309-3 0  9992
2 49282  87.8981 330.9010 0002052  94.6407 265.4957 13.14502088200410
ONEWEB-0356             
1 49283U 21090E   25326.33438554  .00000090  00000+0  18898-3 0  9996
2 49283  87.9178 315.6875 0001585 118.0347 242.0946 13.20772590202520
ONEWEB-0358             
1 49284U 21090F   25326.44012800 -.00000079  00000+0 -22707-3 0  9994
2 49284  87.9189 315.6665 0001721  90.2792 269.8539 13.20773565203267
ONEWEB-0359             
1 49285U 21090G   25326.36121961 -.00000047  00000+0 -14839-3 0  9997
2 49285  87.9182 315.6830 0001539  79.1654 280.9652 13.20771308203235
ONEWEB-0360             
1 49286U 21090H   25326.35176551  .00000048  00000+0  86050-4 0  9996
2 49286  87.9177 315.6944 0001810  86.0542 274.0799 13.20771411202545
ONEWEB-0361             
1 49287U 21090J   25326.33281898  .00000096  00000+0  20487-3 0  9990
2 49287  87.9178 315.6932 0001732  92.8486 267.2845 13.20770895202999
ONEWEB-0362             
1 49288U 21090K   25326.12155300  .00000035  00000+0  54370-4 0  9998
2 49288  87.9200 346.1894 0001982  87.5343 272.6016 13.19727660199605
ONEWEB-0363             
1 49289U 21090L   25326.34858285  .00000130  00000+0  28836-3 0  9998
2 49289  87.9183 315.6866 0001654  98.3746 261.7575 13.20769657203002
ONEWEB-0364             
1 49290U 21090M   25326.46221525  .00000081  00000+0  16725-3 0  9993
2 49290  87.9178 315.6894 0001794  92.8421 267.2918 13.20774980204157
ONEWEB-0365             
1 49291U 21090N   25326.13102794 -.00000037  00000+0 -12475-3 0  9995
2 49291  87.9213 346.1490 0001928  91.4661 268.6692 13.19728059199116
ONEWEB-0366             
1 49292U 21090P   25326.39551550  .00000241  00000+0  61668-3 0  9995
2 49292  87.8978 330.9199 0001756  91.1889 268.9442 13.14501611200396
ONEWEB-0367             
1 49293U 21090Q   25326.34700333  .00000035  00000+0  53524-4 0  9990
2 49293  87.9186 315.6860 0001998  83.7397 276.3964 13.20773423202521
ONEWEB-0368             
1 49294U 21090R   25326.39592936  .00000137  00000+0  30599-3 0  9993
2 49294  87.9177 315.7078 0002231 108.6499 251.4877 13.20769209203687
ONEWEB-0369             
1 49295U 21090S   25326.12629867  .00000002  00000+0 -27635-4 0  9999
2 49295  87.9208 346.1792 0001923  95.6163 264.5189 13.19727085199100
ONEWEB-0370             
1 49296U 21090T   25326.35647567  .00000054  00000+0  10208-3 0  9995
2 49296  87.9181 315.6903 0001803  77.9221 282.2114 13.20773729202569
ONEWEB-0371             
1 49297U 21090U   25326.13419617 -.00000049  00000+0 -15397-3 0  9995
2 49297  87.9208 346.1654 0001912  90.9687 269.1664 13.19727518199140
ONEWEB-0372             
1 49298U 21090V   25326.34530279  .00000007  00000+0 -13614-4 0  9991
2 49298  87.9176 315.6934 0001946  88.6942 271.4415 13.20772608202532
ONEWEB-0373             
1 49299U 21090W   25326.44803101 -.00000038  00000+0 -12521-3 0  9990
2 49299  87.9176 315.6861 0001742  88.0032 272.1301 13.20773020203734
ONEWEB-0374             
1 49300U 21090X   25326.45895046  .00000132  00000+0  32219-3 0  9992
2 49300  87.8986 330.8839 0001737 109.8862 250.2455 13.14503308200407
ONEWEB-0375             
1 49301U 21090Y   25326.35964451 -.00000064  00000+0 -19006-3 0  9994
2 49301  87.9180 315.6836 0001372 100.7328 259.3960 13.20772592203229
ONEWEB-0376             
1 49302U 21090Z   25326.13262674  .00000014  00000+0  17467-5 0  9993
2 49302  87.9214 346.1519 0002080  93.1299 267.0071 13.19726666199147
ONEWEB-0377             
1 49303U 21090AA  25326.34557957 -.00000004  00000+0 -40934-4 0  9993
2 49303  87.9184 315.6863 0001688  82.7962 277.3363 13.20772235203218
ONEWEB-0378             
1 49304U 21090AB  25326.44341568 -.00000043  00000+0 -13838-3 0  9999
2 49304  87.9185 315.6812 0001736  91.8752 268.2580 13.20774855202495
ONEWEB-0379             
1 49305U 21090AC  25326.45419461  .00000189  00000+0  47467-3 0  9993
2 49305  87.8987 330.8936 0001889  95.1657 264.9688 13.14503353200408
ONEWEB-0380             
1 49306U 21090AD  25326.12945443  .00000006  00000+0 -17806-4 0  9996
2 49306  87.9208 346.1755 0001636  94.1974 265.9346 13.19727705199117
ONEWEB-0381             
1 49307U 21090AE  25326.34227588 -.00000030  00000+0 -10512-3 0  9998
2 49307  87.9180 315.6905 0001596  91.9711 268.1605 13.20773371202529
ONEWEB-0382             
1 49308U 21090AF  25326.40541929  .00000105  00000+0  22676-3 0  9999
2 49308  87.9187 315.6726 0001716  97.7989 262.3339 13.20772439202527
ONEWEB-0383             
1 49309U 21090AG  25325.99113455  .00000063  00000+0  13597-3 0  9997
2 49309  87.8991 330.9698 0001851  96.7310 263.4030 13.14502727200370
ONEWEB-0384             
1 49310U 21090AH  25326.39923616  .00000154  00000+0  34626-3 0  9999
2 49310  87.9197 315.7080 0001728 106.1593 253.9731 13.20798028202539
ONEWEB-0385             
1 49311U 21090AJ  25326.39751034  .00000113  00000+0  24654-3 0  9998
2 49311  87.9178 315.6810 0001763  93.2181 266.9154 13.20772490202502
ONEWEB-0386             
1 49312U 21090AK  25326.33911811  .00000004  00000+0 -21753-4 0  9992
2 49312  87.9187 315.6748 0001772  97.0095 263.1240 13.20772761202516
ONEWEB-0387             
1 49313U 21090AL  25326.39910544  .00000141  00000+0  31396-3 0  9995
2 49313  87.9178 315.7102 0001532  88.7524 271.3785 13.20772935202529
ONEWEB-0388             
1 49314U 21090AM  25326.12471912 -.00000021  00000+0 -84981-4 0  9996
2 49314  87.9201 346.1793 0001766  98.1139 262.0194 13.19727506199109
